NOAA 1 [-]              
1 04793U 70106A   17309.71111639 -.00000023  00000-0  14016-3 0  9997
2 04793 101.7860  14.0288 0031629 345.5336 125.7172 12.53982725146900
NOAA 2 [-]              
1 06235U 72082A   17309.56392965 -.00000054  00000-0 -61833-4 0  9996
2 06235 101.7029 272.4467 0004328  72.1703  40.4339 12.53099045 61151
NOAA 3 [-]              
1 06920U 73086A   17309.56774473 -.00000047  00000-0 -15964-4 0  9996
2 06920 101.9601 276.6055 0006274 170.3423 298.5307 12.40351638992071
NOAA 4 [-]              
1 07529U 74089A   17309.56069024 -.00000049  00000-0 -31780-4 0  9991
2 07529 101.6613 275.6800 0009166 104.6021   3.9741 12.53116230965746
NOAA 5 [-]              
1 09057U 76077A   17309.76210895 -.00000053  00000-0 -70834-4 0  9992
2 09057 101.8474 287.2474 0010199  25.5941  29.2402 12.37761110865511
TIROS N [P]             
1 11060U 78096A   17308.80499085  .00000016  00000-0  29586-4 0  9991
2 11060  98.8774 358.9696 0009697 302.1112  57.9121 14.18173814232910
NOAA 6 [P]              
1 11416U 79057A   17309.60475963  .00000052  00000-0  34853-4 0  9995
2 11416  98.5921 296.3551 0010145 184.6414 175.4677 14.33446136   337
NOAA 7 [-]              
1 12553U 81059A   17309.59000237  .00000016  00000-0  30765-4 0  9997
2 12553  99.0663 293.9647 0010867 212.0426 260.9619 14.17228466879367
NOAA 8 [-]              
1 13923U 83022A   17309.62541693  .00000037  00000-0  31950-4 0  9991
2 13923  98.5254 296.4294 0016366 106.5441 253.7540 14.28611754802085
NOAA 9 [P]              
1 15427U 84123A   17309.72500400  .00000012  00000-0  28563-4 0  9996
2 15427  98.8179 252.1285 0013838 277.3431 143.9232 14.16016502698405
NOAA 10 [-]             
1 16969U 86073A   17309.64920469  .00000007  00000-0  19739-4 0  9995
2 16969  98.4624 313.9326 0011448 216.0953 254.0136 14.28024343620625
NOAA 11 [-]             
1 19531U 88089A   17309.73510582 -.00000009  00000-0  16781-4 0  9990
2 19531  98.5336   2.2785 0011054 357.6664   2.4457 14.15216421502777
NOAA 12 [-]             
1 21263U 91032A   17309.69746704  .00000004  00000-0  19867-4 0  9991
2 21263  98.5545 330.4576 0012862 225.3427 134.6706 14.25853712376892
NOAA 13 [-]             
1 22739U 93050A   17309.69219454  .00000024  00000-0  35432-4 0  9997
2 22739  98.5427 352.0878 0010487 126.5965 233.6174 14.12693380249410
NOAA 14 [-]             
1 23455U 94089A   17309.68960449 -.00000004  00000-0  20353-4 0  9997
2 23455  98.6743  20.6354 0010504 110.0908 250.1397 14.14106045178837
NOAA 15 [B]             
1 25338U 98030A   17309.68804287  .00000031  00000-0  31870-4 0  9991
2 25338  98.7797 320.8678 0011046 151.3082 208.8707 14.25824158 13170
NOAA 16 [-]             
1 26536U 00055A   17309.74569066 -.00000000  00000-0  23523-4 0  9995
2 26536  98.8432  20.9361 0009524 281.0343  78.9757 14.13189660882897
NOAA 17 [-]             
1 27453U 02032A   17309.74792686 -.00000003  00000-0  16698-4 0  9995
2 27453  98.4540 268.8994 0012300 140.9901 219.2169 14.24998855798929
NOAA 18 [B]             
1 28654U 05018A   17309.74091200  .00000008  00000-0  29750-4 0  9997
2 28654  99.1723 335.3472 0014816  38.1235 322.0981 14.12355757642240
NOAA 19 [+]             
1 33591U 09005A   17309.68624984  .00000086  00000-0  71741-4 0  9990
2 33591  99.1120 278.6490 0013133 232.6530 127.3445 14.12225969450627
NPP [+]                 
1 37849U 11061A   17309.20487095  .00000016  00000-0  28094-4 0  9999
2 37849  98.7133 245.9325 0001640  90.0565  16.9416 14.19551911312099
